NORAD_CAT_ID,OBJECT_NAME,OBJECT_TYPE,EPOCH,MEAN_MOTION,ECCENTRICITY,INCLINATION,RA_OF_ASC_NODE,ARG_OF_PERICENTER,MEAN_ANOMALY,BSTAR,MEAN_MOTION_DOT,MEAN_MOTION_DDOT,TLE_LINE0,TLE_LINE1,TLE_LINE2,SEMIMAJOR_AXIS,PERIOD,APOGEE,PERIGEE,DECAYED
53857.0,STARLINK-4809,PAYLOAD,2024-05-27 18:55:38,15.08840869,0.000147,53.2197,335.7048,60.4195,299.6944,0.00011292,1.51e-05,0.0,0 STARLINK-4809,1 53857U 22114AR  24148.78863690  .00001510  00000-0  11292-3 0  9999,2 53857  53.2197 335.7048 0001470  60.4195 299.6944 15.08840869 94177,6917.878,95.437,540.76,538.726,0.0
53857.0,STARLINK-4809,PAYLOAD,2024-05-28 18:46:25,15.08842638,9.91e-05,53.2183,331.2459,87.8362,272.2744,4.3574e-05,4.06e-06,0.0,0 STARLINK-4809,1 53857U 22114AR  24149.78223470  .00000406  00000-0  43574-4 0  9998,2 53857  53.2183 331.2459 0000991  87.8362 272.2744 15.08842638 94862,6917.872,95.437,540.423,539.052,0.0
53857.0,STARLINK-4809,PAYLOAD,2024-05-29 17:01:49,15.08837831,0.0001055,53.2186,327.0836,92.6453,267.466,-4.8907e-07,-2.96e-06,0.0,0 STARLINK-4809,1 53857U 22114AR  24150.70959902 -.00000296  00000-0 -48907-6 0  9994,2 53857  53.2186 327.0836 0001055  92.6453 267.4660 15.08837831 94462,6917.887,95.438,540.482,539.022,0.0
53857.0,STARLINK-4809,PAYLOAD,2024-05-29 21:47:58,15.08838858,0.0001063,53.2187,326.1912,93.1723,266.9391,8.2381e-06,-1.57e-06,0.0,0 STARLINK-4809,1 53857U 22114AR  24150.90831864 -.00000157  00000-0  82381-5 0  9990,2 53857  53.2187 326.1912 0001063  93.1723 266.9391 15.08838858 95032,6917.884,95.438,540.484,539.014,0.0
53857.0,STARLINK-4809,PAYLOAD,2024-05-30 12:06:26,15.08838077,0.0001108,53.2191,323.5159,92.8274,267.2845,7.3538e-05,8.83e-06,0.0,0 STARLINK-4809,1 53857U 22114AR  24151.50447769  .00000883  00000-0  73538-4 0  9992,2 53857  53.2191 323.5159 0001108  92.8274 267.2845 15.08838077 95129,6917.886,95.438,540.518,538.985,0.0
53857.0,STARLINK-4809,PAYLOAD,2024-05-30 16:52:36,15.08839439,0.0001075,53.2186,322.6237,89.0667,271.0448,8.0403e-05,9.92e-06,0.0,0 STARLINK-4809,1 53857U 22114AR  24151.70319706  .00000992  00000-0  80403-4 0  9993,2 53857  53.2186 322.6237 0001075  89.0667 271.0448 15.08839439 95155,6917.882,95.438,540.491,539.003,0.0
53857.0,STARLINK-4809,PAYLOAD,2024-05-31 10:21:50,15.08840439,0.0001008,53.218,319.3528,83.616,276.4947,8.5945e-05,1.08e-05,0.0,0 STARLINK-4809,1 53857U 22114AR  24152.43183711  .00001080  00000-0  85945-4 0  9994,2 53857  53.2180 319.3528 0001008  83.6160 276.4947 15.08840439 94726,6917.879,95.438,540.441,539.047,0.0
53857.0,STARLINK-4809,PAYLOAD,2024-05-31 18:18:47,15.08831529,0.000113,53.2187,317.8674,100.8845,259.2275,2.3624e-06,-2.5e-06,0.0,0 STARLINK-4809,1 53857U 22114AR  24152.76304556 -.00000250  00000-0  23624-5 0  9998,2 53857  53.2187 317.8674 0001130 100.8845 259.2275 15.08831529 94774,6917.906,95.438,540.553,538.99,0.0
53857.0,STARLINK-4809,PAYLOAD,2024-06-01 14:58:47,15.08840297,0.0001153,53.2189,314.0013,96.9124,263.1999,9.2103e-05,1.178e-05,0.0,0 STARLINK-4809,1 53857U 22114AR  24153.62415907  .00001178  00000-0  92103-4 0  9993,2 53857  53.2189 314.0013 0001153  96.9124 263.1999 15.08840297 95446,6917.879,95.438,540.542,538.947,0.0
53857.0,STARLINK-4809,PAYLOAD,2024-06-01 19:44:56,15.08849875,0.0001136,53.2191,313.1097,103.767,256.3449,0.00015519,2.184e-05,0.0,0 STARLINK-4809,1 53857U 22114AR  24153.82287215  .00002184  00000-0  15519-3 0  9997,2 53857  53.2191 313.1097 0001136 103.7670 256.3449 15.08849875 94933,6917.85,95.437,540.501,538.929,0.0
53857.0,STARLINK-4809,PAYLOAD,2024-06-02 19:35:43,15.08843621,0.0001082,53.2193,308.6447,90.7223,269.3893,9.2879e-05,1.191e-05,0.0,0 STARLINK-4809,1 53857U 22114AR  24154.81647677  .00001191  00000-0  92879-4 0  9991,2 53857  53.2193 308.6447 0001082  90.7223 269.3893 15.08843621 95089,6917.869,95.437,540.483,538.986,0.0
53857.0,STARLINK-4809,PAYLOAD,2024-06-03 09:54:11,15.08845339,0.0001126,53.2171,305.9711,94.3349,265.7772,8.749e-06,-1.49e-06,0.0,0 STARLINK-4809,1 53857U 22114AR  24155.41263846 -.00000149  00000-0  87490-5 0  9997,2 53857  53.2171 305.9711 0001126  94.3349 265.7772 15.08845339 95711,6917.864,95.437,540.508,538.95,0.0
53857.0,STARLINK-4809,PAYLOAD,2024-06-04 03:23:26,15.08848082,0.000152,53.2172,302.6988,98.7424,261.374,-1.1403e-05,-4.7e-06,0.0,0 STARLINK-4809,1 53857U 22114AR  24156.14127531 -.00000470  00000-0 -11403-4 0  9996,2 53857  53.2172 302.6988 0001520  98.7424 261.3740 15.08848082 95289,6917.856,95.437,540.772,538.669,0.0
53857.0,STARLINK-4809,PAYLOAD,2024-06-04 19:17:18,15.08834735,0.000143,53.2143,299.7262,82.0766,278.0388,2.484e-05,1.07e-06,0.0,0 STARLINK-4809,1 53857U 22114AR  24156.80368370  .00000107  00000-0  24840-4 0  9991,2 53857  53.2143 299.7262 0001430  82.0766 278.0388 15.08834735 95387,6917.896,95.438,540.751,538.772,0.0
53857.0,STARLINK-4809,PAYLOAD,2024-06-05 09:35:46,15.08827026,0.0001627,53.2172,297.0495,88.484,271.6338,0.00017612,2.515e-05,0.0,0 STARLINK-4809,1 53857U 22114AR  24157.39984612  .00002515  00000-0  17612-3 0  9992,2 53857  53.2172 297.0495 0001627  88.4840 271.6338 15.08827026 96019,6917.92,95.438,540.911,538.659,0.0
53857.0,STARLINK-4809,PAYLOAD,2024-06-05 15:57:19,15.08821366,0.0001704,53.2185,295.8593,96.2151,263.9036,0.00021011,3.056e-05,0.0,0 STARLINK-4809,1 53857U 22114AR  24157.66481158  .00003056  00000-0  21011-3 0  9998,2 53857  53.2185 295.8593 0001704  96.2151 263.9036 15.08821366 95510,6917.937,95.439,540.981,538.624,0.0
53857.0,STARLINK-4809,PAYLOAD,2024-06-06 12:37:19,15.08836777,0.000123,53.2193,291.9928,95.6637,264.4495,9.2892e-05,1.191e-05,0.0,0 STARLINK-4809,1 53857U 22114AR  24158.52592533  .00001191  00000-0  92892-4 0  9998,2 53857  53.2193 291.9928 0001230  95.6637 264.4495 15.08836777 95645,6917.89,95.438,540.606,538.904,0.0
53857.0,STARLINK-4809,PAYLOAD,2024-06-06 15:48:05,15.08844311,0.0001152,53.2187,291.3988,80.4238,279.6884,0.00015123,2.12e-05,0.0,0 STARLINK-4809,1 53857U 22114AR  24158.65840012  .00002120  00000-0  15123-3 0  9994,2 53857  53.2187 291.3988 0001152  80.4238 279.6884 15.08844311 96206,6917.867,95.437,540.529,538.935,0.0
53857.0,STARLINK-4809,PAYLOAD,2024-06-06 18:58:52,15.08844248,0.0001264,53.2183,290.8045,83.532,276.5816,0.00013481,1.859e-05,0.0,0 STARLINK-4809,1 53857U 22114AR  24158.79088031  .00001859  00000-0  13481-3 0  9997,2 53857  53.2183 290.8045 0001264  83.5320 276.5816 15.08844248 95681,6917.867,95.437,540.607,538.858,0.0
53857.0,STARLINK-4809,PAYLOAD,2024-06-07 09:17:21,15.08833519,0.000133,53.2185,288.1285,102.4723,257.6418,9.3511e-05,1.2e-05,0.0,0 STARLINK-4809,1 53857U 22114AR  24159.38704927  .00001200  00000-0  93511-4 0  9995,2 53857  53.2185 288.1285 0001330 102.4723 257.6418 15.08833519 95778,6917.9,95.438,540.685,538.845,0.0
53857.0,STARLINK-4809,PAYLOAD,2024-06-07 15:38:54,15.08827388,8.9e-05,53.2203,286.941,79.1716,280.9377,4.0454e-05,3.56e-06,0.0,0 STARLINK-4809,1 53857U 22114AR  24159.65201756  .00000356  00000-0  40454-4 0  9996,2 53857  53.2203 286.9410 0000890  79.1716 280.9377 15.08827388 95812,6917.919,95.438,540.4,539.168,0.0
53857.0,STARLINK-4809,PAYLOAD,2024-06-08 01:11:12,15.08840589,0.0001455,53.2184,285.154,84.8554,275.2604,9.3619e-05,1.202e-05,0.0,0 STARLINK-4809,1 53857U 22114AR  24160.04944808  .00001202  00000-0  93619-4 0  9995,2 53857  53.2184 285.1540 0001455  84.8554 275.2604 15.08840589 95870,6917.879,95.438,540.75,538.737,0.0
53857.0,STARLINK-4809,PAYLOAD,2024-06-08 15:29:40,15.08844951,0.0001089,53.2144,282.4793,87.2302,272.8814,6.0022e-05,6.68e-06,0.0,0 STARLINK-4809,1 53857U 22114AR  24160.64560813  .00000668  00000-0  60022-4 0  9998,2 53857  53.2144 282.4793 0001089  87.2302 272.8814 15.08844951 96501,6917.865,95.437,540.484,538.977,0.0
53857.0,STARLINK-4809,PAYLOAD,2024-06-09 01:01:58,15.08848884,0.0001503,53.2175,280.6934,69.8548,290.2606,0.0002021,2.931e-05,0.0,0 STARLINK-4809,1 53857U 22114AR  24161.04304129  .00002931  00000-0  20210-3 0  9998,2 53857  53.2175 280.6934 0001503  69.8548 290.2606 15.08848884 96020,6917.853,95.437,540.758,538.678,0.0
53857.0,STARLINK-4809,PAYLOAD,2024-06-09 12:09:42,15.08827905,0.000183,53.2169,278.6132,71.6855,288.4336,7.6391e-05,9.27e-06,0.0,0 STARLINK-4809,1 53857U 22114AR  24161.50674056  .00000927  00000-0  76391-4 0  9993,2 53857  53.2169 278.6132 0001830  71.6855 288.4336 15.08827905 96092,6917.917,95.438,541.048,538.516,0.0
53857.0,STARLINK-4809,PAYLOAD,2024-06-10 00:52:46,15.08842284,0.000163,53.219,276.2323,80.0113,280.1063,8.3347e-05,1.039e-05,0.0,0 STARLINK-4809,1 53857U 22114AR  24162.03665156  .00001039  00000-0  83347-4 0  9997,2 53857  53.2190 276.2323 0001630  80.0113 280.1063 15.08842284 96173,6917.873,95.437,540.866,538.611,0.0
53857.0,STARLINK-4809,PAYLOAD,2024-06-10 13:35:52,15.08828592,0.0001012,53.2161,273.8544,84.1922,275.9185,6.8416e-05,8.01e-06,0.0,0 STARLINK-4809,1 53857U 22114AR  24162.56658085  .00000801  00000-0  68416-4 0  9994,2 53857  53.2161 273.8544 0001012  84.1922 275.9185 15.08828592 96258,6917.915,95.438,540.48,539.08,0.0
53857.0,STARLINK-4809,PAYLOAD,2024-06-10 19:57:23,15.08854893,0.0001281,53.2182,272.6638,75.8729,284.2405,5.2742e-05,5.52e-06,0.0,0 STARLINK-4809,1 53857U 22114AR  24162.83152564  .00000552  00000-0  52742-4 0  9993,2 53857  53.2182 272.6638 0001281  75.8729 284.2405 15.08854893 96297,6917.835,95.437,540.586,538.814,0.0
53857.0,STARLINK-4809,PAYLOAD,2024-06-11 13:26:39,15.08836632,0.0001167,53.218,269.3968,77.6926,282.4197,0.00015456,2.173e-05,0.0,0 STARLINK-4809,1 53857U 22114AR  24163.56017467  .00002173  00000-0  15456-3 0  9997,2 53857  53.2180 269.3968 0001167  77.6926 282.4197 15.08836632 96947,6917.891,95.438,540.563,538.948,0.0
53857.0,STARLINK-4809,PAYLOAD,2024-06-12 00:34:20,15.08845906,0.000129,53.2194,267.3126,94.2747,265.8392,0.00016581,2.352e-05,0.0,0 STARLINK-4809,1 53857U 22114AR  24164.02384547  .00002352  00000-0  16581-3 0  9994,2 53857  53.2194 267.3126 0001290  94.2747 265.8392 15.08845906 96473,6917.862,95.437,540.62,538.835,0.0
